STARLINK-5936           
1 56011U 23042AB  26033.57576599  .00000986  00000+0  88065-4 0  9994
2 56011  43.0025 234.3043 0001312 266.6405  93.4287 15.02534865157773
STARLINK-5940           
1 56012U 23042AC  26033.58131134  .00000365  00000+0  42124-4 0  9995
2 56012  43.0031 234.3435 0001274 268.8245  91.2451 15.02533429157773
STARLINK-5941           
1 56013U 23042AD  26033.30836149  .00000148  00000+0  26033-4 0  9994
2 56013  43.0028 247.8822 0001087 268.1208  91.9510 15.02538386157593
STARLINK-5942           
1 56014U 23042AE  26033.57464846  .00000542  00000+0  55186-4 0  9994
2 56014  43.0038 234.2917 0001230 268.0589  92.0113 15.02537973157773
STARLINK-5939           
1 56015U 23042AF  26033.57799609  .00001191  00000+0  10319-3 0  9992
2 56015  43.0028 234.3205 0001027 257.8398 102.2329 15.02542387157770
STARLINK-5943           
1 56016U 23042AG  26032.95970048  .00000519  00000+0  53464-4 0  9994
2 56016  43.0026 237.4183 0001176 267.5226  92.5482 15.02536261157686
STARLINK-5934           
1 56017U 23042AH  26033.56909812  .00000651  00000+0  63251-4 0  9996
2 56017  43.0025 234.2516 0001360 263.0505  97.0182 15.02539612157777
STARLINK-5945           
1 56018U 23042AJ  26032.89433224  .00000564  00000+0  56817-4 0  9994
2 56018  43.0026 237.7879 0001214 263.6322  96.4382 15.02534838157679
STARLINK-5949           
1 56019U 23042AK  26033.57243132  .00000456  00000+0  48813-4 0  9995
2 56019  43.0028 234.2764 0001293 265.8568  94.2127 15.02533945157772
STARLINK-5912           
1 56020U 23042AL  26033.56244274 -.00000057  00000+0  10861-4 0  9994
2 56020  43.0018 234.2014 0001033 250.1743 109.8988 15.02534379157775
STARLINK-5907           
1 56021U 23042AM  26033.56577053  .00000647  00000+0  62990-4 0  9993
2 56021  43.0026 234.2251 0001095 275.1039  84.9679 15.02537346157778
STARLINK-5783           
1 56022U 23042AN  26033.54909350  .00002389  00000+0  19173-3 0  9990
2 56022  43.0014 234.1010 0001047 269.7291  90.3431 15.02555686157778
STARLINK-5771           
1 56023U 23042AP  26033.62115387  .00000045  00000+0  18379-4 0  9994
2 56023  43.0024 233.7759 0001210 267.5353  92.5351 15.02546326157789
STARLINK-5772           
1 56024U 23042AQ  26033.60561010  .00000245  00000+0  33204-4 0  9997
2 56024  43.0029 233.6600 0001260 267.9875  92.0823 15.02537127157785
STARLINK-5766           
1 56025U 23042AR  26033.58241940  .00000454  00000+0  48650-4 0  9995
2 56025  43.0028 234.3398 0001180 271.1511  88.9196 15.02532546157778
STARLINK-5770           
1 56026U 23042AS  26033.54800951  .00001042  00000+0  92157-4 0  9990
2 56026  43.0017 234.0912 0001211 266.9894  93.0810 15.02540739157770
STARLINK-5777           
1 56027U 23042AT  26032.88655786  .00000637  00000+0  62265-4 0  9997
2 56027  43.0038 237.7279 0001620 276.2655  83.8002 15.02536293157672
STARLINK-5779           
1 56028U 23042AU  26033.60116659  .00000627  00000+0  61473-4 0  9999
2 56028  43.0025 233.6295 0001250 264.2705  95.7995 15.02536807157780
STARLINK-5774           
1 56029U 23042AV  26033.54467868  .00002682  00000+0  21355-3 0  9991
2 56029  43.0047 234.0665 0001149 265.6555  94.4156 15.02537022157770
STARLINK-5781           
1 56030U 23042AW  26033.59783825  .00000534  00000+0  54598-4 0  9992
2 56030  43.0029 233.6018 0001573 255.9785 104.0883 15.02528316157789
STARLINK-5785           
1 56031U 23042AX  26033.60451076  .00000742  00000+0  69991-4 0  9999
2 56031  43.0024 233.6520 0001053 266.3640  93.7082 15.02531335157782
STARLINK-5786           
1 56032U 23042AY  26033.58896170 -.00000633  00000+0 -31800-4 0  9994
2 56032  43.0025 233.5341 0001391 259.6560 100.4126 15.02536899157780
STARLINK-5782           
1 56034U 23042BA  26033.58785066  .00000113  00000+0  23418-4 0  9994
2 56034  43.0021 233.5241 0001234 266.6348  93.4354 15.02538529157781
STARLINK-5792           
1 56035U 23042BB  26033.59563798  .00003157  00000+0  24869-3 0  9993
2 56035  43.0010 233.5849 0001246 264.9878  95.0822 15.02536192157788
STARLINK-5790           
1 56036U 23042BC  26033.59119660  .00000825  00000+0  76156-4 0  9995
2 56036  43.0027 233.5494 0001142 266.6522  93.4189 15.02541004157789
STARLINK-5758           
1 56037U 23042BD  26033.54604285  .00000614  00000+0  60476-4 0  9997
2 56037  43.0023 221.0163 0001174 267.1178  92.9530 15.02547058157924
STARLINK-5793           
1 56038U 23042BE  26033.58563825  .00000052  00000+0  18920-4 0  9999
2 56038  43.0012 233.5117 0001165 269.8681  90.2028 15.02515309157789
STARLINK-5795           
1 56039U 23042BF  26033.54162074  .00001278  00000+0  10972-3 0  9996
2 56039  43.0005 220.9784 0001589 264.9034  95.1627 15.02518399157927
STARLINK-5798           
1 56040U 23042BG  26032.94109358  .00001093  00000+0  95979-4 0  9993
2 56040  43.0025 224.2115 0001349 249.0465 111.0233 15.02521146157837
STARLINK-5800           
1 56041U 23042BH  26033.53716042  .00000150  00000+0  26140-4 0  9991
2 56041  43.0018 220.9471 0001185 266.3663  93.7044 15.02536370157929
ONEWEB-0537             
1 56046U 23043A   26033.52798386  .00000071  00000+0  15142-3 0  9998
2 56046  87.9012 255.5777 0001702  89.5162 270.6164 13.16594334141246
ONEWEB-0538             
1 56047U 23043B   26033.59764494  .00000120  00000+0  28025-3 0  9998
2 56047  87.9009 255.5671 0001507  98.9665 261.1637 13.16594097141269
ONEWEB-0546             
1 56048U 23043C   26033.58497508  .00000048  00000+0  91156-4 0  9992
2 56048  87.9015 255.5655 0002164  91.0494 269.0885 13.16593134141255
ONEWEB-0547             
1 56049U 23043D   26033.66068704  .00000073  00000+0  14472-3 0  9997
2 56049  87.9197 270.8087 0001455  85.4782 274.6518 13.21826284140452
ONEWEB-0548             
1 56050U 23043E   26033.60951736  .00000146  00000+0  34823-3 0  9992
2 56050  87.9012 255.5619 0001557  68.9993 291.1305 13.16595631141254
ONEWEB-0549             
1 56051U 23043F   26033.65326846  .00000050  00000+0  89425-4 0  9999
2 56051  87.9194 270.8223 0001379  90.0374 270.0918 13.21828047140451
ONEWEB-0550             
1 56052U 23043G   26033.41302518  .00000041  00000+0  68646-4 0  9996
2 56052  87.9193 270.8663 0001591  77.8052 282.3260 13.21825596140420
ONEWEB-0551             
1 56053U 23043H   26033.53376495  .00000219  00000+0  54715-3 0  9993
2 56053  87.8986 286.1145 0001353  89.7781 270.3504 13.15550397138693
ONEWEB-0552             
1 56054U 23043J   26033.40808281 -.00000019  00000+0 -77250-4 0  9993
2 56054  87.9193 270.8755 0001284  80.9227 279.2052 13.21827091140428
ONEWEB-0553             
1 56055U 23043K   26033.59130925  .00000099  00000+0  22406-3 0  9995
2 56055  87.9011 255.5682 0001878  83.2048 276.9296 13.16593852141269
ONEWEB-0554             
1 56056U 23043L   26033.12265398  .00000143  00000+0  34157-3 0  9994
2 56056  87.9007 255.6725 0001567  74.1970 285.9334 13.16593824141185
ONEWEB-0555             
1 56057U 23043M   26033.61664824  .00000080  00000+0  17506-3 0  9995
2 56057  87.9011 255.5584 0002063  85.8579 274.2787 13.16594322141254
ONEWEB-0557             
1 56058U 23043N   26033.09891817  .00000009  00000+0 -96280-5 0  9992
2 56058  87.9014 255.6728 0002510  61.2468 298.8914 13.16594362141181
ONEWEB-0558             
1 56059U 23043P   26033.17441303  .00000032  00000+0  45357-4 0  9996
2 56059  87.9191 270.9147 0001322 102.0809 258.0473 13.21827977140405
ONEWEB-0559             
1 56060U 23043Q   26033.61707557  .00000014  00000+0  26748-5 0  9997
2 56060  87.9195 270.8199 0001258  86.6662 273.4616 13.21824901140470
ONEWEB-0566             
1 56061U 23043R   26033.61048059 -.00000092  00000+0 -25360-3 0  9998
2 56061  87.9194 270.8208 0001267  90.6918 269.4361 13.21825748140450
ONEWEB-0568             
1 56062U 23043S   26033.34432358 -.00000027  00000+0 -10353-3 0  9992
2 56062  87.9014 255.6137 0001807  87.0194 273.1144 13.16594086141230
ONEWEB-0574             
1 56063U 23043T   26033.60391035  .00000018  00000+0  13153-4 0  9998
2 56063  87.9204 270.8108 0001599  76.2536 283.8776 13.21827489140495
ONEWEB-0575             
1 56064U 23043U   26033.33798792 -.00000073  00000+0 -22421-3 0  9990
2 56064  87.9011 255.6136 0001818  74.0107 286.1224 13.16593556141223
ONEWEB-0576             
1 56065U 23043V   26033.54697926 -.00000002  00000+0 -38737-4 0  9991
2 56065  87.9013 255.5749 0001679  78.4744 281.6576 13.16594501141248
ONEWEB-0577             
1 56066U 23043W   26033.09733036  .00000027  00000+0  35808-4 0  9996
2 56066  87.9014 255.6630 0001865  62.1911 297.9409 13.16594271141219
ONEWEB-0578             
1 56067U 23043X   26033.66643773  .00000035  00000+0  53932-4 0  9995
2 56067  87.9195 270.8084 0001821  83.8374 276.2967 13.21824183140466
ONEWEB-0579             
1 56068U 23043Y   26033.65656321  .00000019  00000+0  13623-4 0  9993
2 56068  87.9200 270.7989 0001250  78.8525 281.2750 13.21827494140470
ONEWEB-0581             
1 56069U 23043Z   26033.10366316  .00000036  00000+0  61339-4 0  9992
2 56069  87.9008 255.6740 0001556  67.4493 292.6803 13.16594187141189
ONEWEB-0609             
1 56070U 23043AA  26033.18199672 -.00000100  00000+0 -30060-3 0  9991
2 56070  87.8995 286.1717 0001570  81.9492 278.1816 13.15547767138689
ONEWEB-0613             
1 56071U 23043AB  26033.25330453 -.00000030  00000+0 -11351-3 0  9998
2 56071  87.8993 286.1682 0001260  80.2572 279.8700 13.15548505138698
ONEWEB-0630             
1 56072U 23043AC  26033.62884445  .00000097  00000+0  22247-3 0  9992
2 56072  87.8987 286.0640 0001270  79.2225 280.9048 13.15550798138739
ONEWEB-0632             
1 56073U 23043AD  26033.24379227  .00000083  00000+0  18769-3 0  9997
2 56073  87.8989 286.1579 0001554  70.7901 289.3397 13.15548110138685
ONEWEB-0633             
1 56074U 23043AE  26033.23746568  .00000110  00000+0  25814-3 0  9993
2 56074  87.8994 286.1234 0001206  91.7653 268.3615 13.15548806138661
